[{"OBJECT_NAME":"SHIJIAN-6 03B (SJ-6 03B)","OBJECT_ID":"2008-053B","EPOCH":"2026-03-09T23:28:00.216192","MEAN_MOTION":15.03879314,"ECCENTRICITY":0.00200774,"INCLINATION":97.8673,"RA_OF_ASC_NODE":87.2117,"ARG_OF_PERICENTER":21.0315,"MEAN_ANOMALY":339.1731,"EPHEMERIS_TYPE":0,"CLASSIFICATION_TYPE":"U","NORAD_CAT_ID":33409,"ELEMENT_SET_NO":999,"REV_AT_EPOCH":94783,"BSTAR":0.00032650966,"MEAN_MOTION_DOT":4.452e-5,"MEAN_MOTION_DDOT":0},{"OBJECT_NAME":"FENGYUN 1C DEB","OBJECT_ID":"1999-025BUD","EPOCH":"2026-03-07T11:11:12.390432","MEAN_MOTION":14.83443137,"ECCENTRICITY":0.00894999,"INCLINATION":99.307,"RA_OF_ASC_NODE":307.5923,"ARG_OF_PERICENTER":70.0629,"MEAN_ANOMALY":291.0194,"EPHEMERIS_TYPE":0,"CLASSIFICATION_TYPE":"U","NORAD_CAT_ID":31441,"ELEMENT_SET_NO":999,"REV_AT_EPOCH":65343,"BSTAR":0.0080119516,"MEAN_MOTION_DOT":0.00071223,"MEAN_MOTION_DDOT":0}]
